{
  "type": "FeatureCollection",
  "features": [
    {
      "type": "Feature",
      "properties": { "name": "Cubbon Park Loop", "surface": "paved", "length_m": 2400 },
      "geometry": {
        "type": "LineString",
        "coordinates": [
          [77.5927, 12.9784],
          [77.5934, 12.9791],
          [77.5942, 12.9796],
          [77.5953, 12.9798],
          [77.5963, 12.9794],
          [77.5970, 12.9786],
          [77.5972, 12.9776],
          [77.5968, 12.9767],
          [77.5959, 12.9760],
          [77.5948, 12.9757],
          [77.5937, 12.9759],
          [77.5928, 12.9766],
          [77.5924, 12.9775],
          [77.5927, 12.9784]
        ]
      }
    },
    {
      "type": "Feature",
      "properties": { "name": "Lalbagh Botanical Garden Path", "surface": "gravel", "length_m": 3100 },
      "geometry": {
        "type": "LineString",
        "coordinates": [
          [77.5832, 12.9533],
          [77.5841, 12.9540],
          [77.5855, 12.9545],
          [77.5868, 12.9543],
          [77.5877, 12.9536],
          [77.5882, 12.9525],
          [77.5880, 12.9514],
          [77.5872, 12.9506],
          [77.5859, 12.9503],
          [77.5846, 12.9506],
          [77.5837, 12.9514],
          [77.5833, 12.9524],
          [77.5832, 12.9533]
        ]
      }
    },
    {
      "type": "Feature",
      "properties": { "name": "Sankey Tank Walkway", "surface": "paved", "length_m": 2800 },
      "geometry": {
        "type": "LineString",
        "coordinates": [
          [77.5800, 13.0155],
          [77.5812, 13.0162],
          [77.5825, 13.0166],
          [77.5839, 13.0164],
          [77.5849, 13.0157],
          [77.5853, 13.0147],
          [77.5850, 13.0137],
          [77.5842, 13.0130],
          [77.5830, 13.0127],
          [77.5818, 13.0130],
          [77.5808, 13.0138],
          [77.5803, 13.0148],
          [77.5800, 13.0155]
        ]
      }
    },
    {
      "type": "Feature",
      "properties": { "name": "Ulsoor Lake Promenade", "surface": "paved", "length_m": 2200 },
      "geometry": {
        "type": "LineString",
        "coordinates": [
          [77.6215, 12.9825],
          [77.6224, 12.9831],
          [77.6236, 12.9834],
          [77.6247, 12.9831],
          [77.6253, 12.9823],
          [77.6251, 12.9813],
          [77.6244, 12.9807],
          [77.6232, 12.9805],
          [77.6221, 12.9809],
          [77.6215, 12.9817],
          [77.6215, 12.9825]
        ]
      }
    },
    {
      "type": "Feature",
      "properties": { "name": "Bannerghatta Road Green Corridor", "surface": "dirt", "length_m": 1900 },
      "geometry": {
        "type": "LineString",
        "coordinates": [
          [77.5986, 12.9012],
          [77.5992, 12.9024],
          [77.5998, 12.9037],
          [77.6002, 12.9050],
          [77.6005, 12.9063],
          [77.6006, 12.9077],
          [77.6004, 12.9090],
          [77.6000, 12.9102]
        ]
      }
    },
    {
      "type": "Feature",
      "properties": { "name": "Hebbal Lake Loop", "surface": "paved", "length_m": 1600 },
      "geometry": {
        "type": "LineString",
        "coordinates": [
          [77.5977, 13.0437],
          [77.5988, 13.0444],
          [77.6000, 13.0447],
          [77.6011, 13.0443],
          [77.6017, 13.0434],
          [77.6015, 13.0424],
          [77.6007, 13.0417],
          [77.5995, 13.0416],
          [77.5984, 13.0421],
          [77.5978, 13.0430],
          [77.5977, 13.0437]
        ]
      }
    },
    {
      "type": "Feature",
      "properties": { "name": "MG Road Shaded Walk", "surface": "paved", "length_m": 900 },
      "geometry": {
        "type": "LineString",
        "coordinates": [
          [77.6046, 12.9763],
          [77.6058, 12.9763],
          [77.6070, 12.9762],
          [77.6082, 12.9761],
          [77.6094, 12.9760],
          [77.6106, 12.9759],
          [77.6118, 12.9758]
        ]
      }
    },
    {
      "type": "Feature",
      "properties": { "name": "Indiranagar 100ft Road Path", "surface": "paved", "length_m": 1200 },
      "geometry": {
        "type": "LineString",
        "coordinates": [
          [77.6387, 12.9718],
          [77.6390, 12.9730],
          [77.6393, 12.9742],
          [77.6395, 12.9754],
          [77.6397, 12.9766],
          [77.6399, 12.9778],
          [77.6401, 12.9790]
        ]
      }
    }
  ]
}
